1 41861U 16069C   20116.28221773  .00000064  00000-0  00000-0 0  9994
2 41861  54.6420 163.3200 0005005 273.1223  86.9155  1.70473791 21408
1 41861U 16069C   20118.62853912  .00000063  00000-0  00000+0 0  9998
2 41861  54.6424 163.2549 0005042 273.3929  86.6336  1.70473544 21441
1 41861U 16069C   20119.21510612  .00000061  00000-0  00000+0 0  9999
2 41861  54.6419 163.2385 0005001 273.2925  86.7318  1.70473846 21450
1 41861U 16069C   20119.21510612  .00000061  00000-0  00000-0 0  9990
2 41861  54.6419 163.2385 0005001 273.2925  86.7318  1.70473846 21450
1 41861U 16069C   20119.21510723  .00000061  00000-0  00000-0 0  9993
2 41861  54.6426 163.2385 0005053 273.4523  86.5714  1.70473808 21457
1 41861U 16069C   20119.80168753  .00000060  00000-0  00000-0 0  9999
2 41861  54.6419 163.2223 0005009 273.4095  86.6124  1.70473753 21461
1 41861U 16069C   20121.56143390  .00000060  00000-0  00000+0 0  9994
2 41861  54.6423 163.1734 0005025 273.4792  86.5397  1.70473681 21498
1 41861U 16069C   20126.25411776  .00000072  00000-0  00000+0 0  9994
2 41861  54.6431 163.0430 0005122 273.9164  86.1137  1.70473646 21573
1 41861U 16069C   20126.84070173  .00000071  00000-0  00000-0 0  9991
2 41861  54.6432 163.0267 0005134 273.9749  86.0548  1.70473614 21585
1 41861U 16069C   20126.84070207  .00000071  00000-0  00000-0 0  9999
2 41861  54.6431 163.0267 0005143 274.0247  86.0049  1.70473601 21581
1 41861U 16069C   20129.18701737  .00000057  00000-0  00000+0 0  9991
2 41861  54.6435 162.9615 0005176 274.1753  85.8438  1.70473649 21625
1 41861U 16069C   20129.18701737  .00000057  00000-0  00000-0 0  9992
2 41861  54.6435 162.9615 0005176 274.1753  85.8438  1.70473649 21625
1 41861U 16069C   20129.77359484  .00000052  00000-0  00000-0 0  9990
2 41861  54.6439 162.9452 0005200 274.2045  85.8101  1.70473626 21634
1 41861U 16069C   20130.94674688  .00000043  00000-0  00000-0 0  9997
2 41861  54.6443 162.9126 0005223 274.2483  85.7574  1.70473661 21652
1 41861U 16069C   20132.11990094  .00000038  00000-0  00000+0 0  9993
2 41861  54.6445 162.8800 0005229 274.2409  85.7576  1.70473701 21675
1 41861U 16069C   20133.87964267  .00000040  00000-0  00000-0 0  9994
2 41861  54.6449 162.8312 0005263 274.3681  85.6250  1.70473727 21708
1 41861U 16069C   20137.98574309  .00000070  00000-0  00000+0 0  9996
2 41861  54.6458 162.7172 0005318 274.7379  85.2651  1.70473784 21771
1 41861U 16069C   20137.98574309  .00000070  00000-0  00000-0 0  9997
2 41861  54.6458 162.7172 0005318 274.7379  85.2651  1.70473784 21771
1 41861U 16069C   20138.57233008  .00000074  00000-0  00000-0 0  9995
2 41861  54.6459 162.7009 0005320 274.7809  85.2241  1.70473774 21787
1 41861U 16069C   20139.15891612  .00000078  00000-0  00000-0 0  9995
2 41861  54.6460 162.6846 0005326 274.8316  85.1751  1.70473772 21791
1 41861U 16069C   20139.74550234  .00000081  00000-0  00000-0 0  9996
2 41861  54.6462 162.6684 0005332 274.8800  85.1278  1.70473739 21807
1 41861U 16069C   20140.33208712  .00000084  00000-0  00000+0 0  9996
2 41861  54.6463 162.6521 0005339 274.9546  85.0538  1.70473719 21810
1 41861U 16069C   20141.50525234  .00000089  00000-0  00000-0 0  9993
2 41861  54.6465 162.6196 0005346 274.9851  85.0226  1.70473714 21838
1 41861U 16069C   20142.09183354  .00000090  00000-0  00000-0 0  9993
2 41861  54.6467 162.6034 0005361 275.0752  84.9309  1.70473694 21848
1 41861U 16069C   20143.85157060  .00000092  00000-0  00000+0 0  9994
2 41861  54.6471 162.5545 0005379 275.3391  84.6590  1.70473662 21877
1 41861U 16069C   20145.61130342  .00000090  00000-0  00000-0 0  9993
2 41861  54.6476 162.5058 0005387 275.6735  84.3131  1.70473584 21900
1 41861U 16069C   20147.95761886  .00000084  00000-0  00000+0 0  9997
2 41861  54.6482 162.4406 0005389 275.8132  84.1613  1.70473526 21941
1 41861U 16069C   20150.30395222  .00000086  00000-0  00000-0 0  9990
2 41861  54.6488 162.3755 0005406 276.0897  83.8834  1.70473483 21981
1 41861U 16069C   20150.30395394  .00000086  00000-0  00000-0 0  9990
2 41861  54.6487 162.3755 0005405 276.1283  83.8448  1.70473444 21987
1 41861U 16069C   20153.23688170  .00000091  00000-0  00000-0 0  9998
2 41861  54.6495 162.2940 0005416 276.3092  83.6692  1.70473433 22037
1 41861U 16069C   20155.58320604  .00000080  00000-0  00000+0 0  9990
2 41861  54.6499 162.2289 0005413 276.4652  83.5057  1.70473438 22070
1 41861U 16069C   20160.86240634  .00000047  00000-0  00000+0 0  9994
2 41861  54.6511 162.0824 0005409 276.5983  83.3373  1.70473513 22164
1 41861U 16069C   20162.62215867  .00000055  00000-0  00000-0 0  9990
2 41861  54.6518 162.0336 0005414 276.6511  83.2842  1.70473557 22194
1 41861U 16069C   20167.31485284  .00000082  00000-0  00000+0 0  9992
2 41861  54.6528 161.9033 0005389 276.8072  83.1407  1.70473560 22271
1 41861U 16069C   20167.90143863  .00000084  00000-0  00000-0 0  9994
2 41861  54.6529 161.8871 0005383 277.0949  82.8533  1.70473519 22282
1 41861U 16069C   20169.07460494  .00000086  00000-0  00000-0 0  9998
2 41861  54.6529 161.8545 0005372 277.5049  82.4419  1.70473487 22300
1 41861U 16069C   20169.66118376  .00000087  00000-0  00000+0 0  9992
2 41861  54.6530 161.8383 0005373 277.5173  82.4276  1.70473539 22311
1 41861U 16069C   20170.24776505  .00000087  00000-0  00000-0 0  9993
2 41861  54.6531 161.8220 0005369 277.5398  82.4027  1.70473501 22320
1 41861U 16069C   20171.42092432  .00000086  00000-0  00000-0 0  9993
2 41861  54.6533 161.7895 0005364 277.6939  82.2424  1.70473438 22346
1 41861U 16069C   20172.00750430  .00000084  00000-0  00000+0 0  9994
2 41861  54.6535 161.7732 0005362 277.7310  82.2016  1.70473377 22350
1 41861U 16069C   20173.18066122  .00000081  00000-0  00000-0 0  9990
2 41861  54.6537 161.7407 0005339 277.9407  81.9848  1.70473356 22372
1 41861U 16069C   20173.76723893  .00000079  00000-0  00000-0 0  9996
2 41861  54.6539 161.7245 0005312 278.1306  81.7917  1.70473381 22380
1 41861U 16069C   20176.11356683  .00000072  00000-0  00000+0 0  9999
2 41861  54.6543 161.6594 0005279 278.2645  81.6504  1.70473275 22428
1 41861U 16069C   20176.70015293  .00000072  00000-0  00000-0 0  9994
2 41861  54.6544 161.6431 0005267 278.3874  81.5277  1.70473233 22432
1 41861U 16069C   20177.87332604  .00000073  00000-0  00000-0 0  9992
2 41861  54.6546 161.6105 0005253 278.4993  81.4180  1.70473212 22451
1 41861U 16069C   20180.21967590  .00000075  00000-0  00000+0 0  9993
2 41861  54.6550 161.5455 0005223 278.7447  81.1791  1.70473187 22497
1 41861U 16069C   20181.97942733  .00000068  00000-0  00000-0 0  9992
2 41861  54.6553 161.4966 0005222 278.7466  81.1757  1.70473204 22522
1 41861U 16069C   20182.56600921  .00000064  00000-0  00000+0 0  9993
2 41861  54.6554 161.4803 0005211 278.7733  81.1468  1.70473190 22532
1 41861U 16069C   20182.56600921  .00000064  00000-0  00000-0 0  9994
2 41861  54.6554 161.4803 0005211 278.7733  81.1468  1.70473190 22532
1 41861U 16069C   20184.91232439  .00000039  00000-0  00000+0 0  9991
2 41861  54.6558 161.4152 0005162 278.8907  81.0140  1.70473205 22579
1 41861U 16069C   20187.84522382  .00000021  00000-0  00000+0 0  9996
2 41861  54.6562 161.3339 0005125 278.9902  80.8994  1.70473285 22623
1 41861U 16069C   20190.19156911  .00000028  00000-0  00000+0 0  9996
2 41861  54.6566 161.2688 0005093 279.1885  80.7038  1.70473304 22664
1 41861U 16069C   20190.77815807  .00000032  00000-0  00000-0 0  9992
2 41861  54.6567 161.2526 0005080 279.1968  80.6980  1.70473315 22672
1 41861U 16069C   20191.95133619  .00000038  00000-0  00000-0 0  9993
2 41861  54.6569 161.2200 0005051 279.2721  80.6284  1.70473371 22690
1 41861U 16069C   20194.88428211  .00000050  00000-0  00000+0 0  9996
2 41861  54.6572 161.1387 0004989 279.5987  80.3134  1.70473286 22747
1 41861U 16069C   20197.23062073  .00000052  00000-0  00000+0 0  9990
2 41861  54.6575 161.0737 0004940 279.9510  79.9607  1.70473257 22782
1 41861U 16069C   20197.23062073  .00000052  00000-0  00000-0 0  9991
2 41861  54.6575 161.0737 0004940 279.9510  79.9607  1.70473257 22782
1 41861U 16069C   20197.81720306  .00000052  00000-0  00000-0 0  9995
2 41861  54.6575 161.0574 0004931 279.9971  79.9130  1.70473245 22791
1 41861U 16069C   20199.57694740  .00000047  00000-0  00000-0 0  9996
2 41861  54.6577 161.0086 0004887 280.2602  79.6431  1.70473185 22825
1 41861U 16069C   20200.16352650  .00000045  00000-0  00000+0 0  9992
2 41861  54.6578 160.9923 0004886 280.2382  79.6624  1.70473219 22831
1 41861U 16069C   20201.33669171  .00000041  00000-0  00000-0 0  9998
2 41861  54.6579 160.9598 0004847 280.3656  79.5310  1.70473136 22853
1 41861U 16069C   20201.92327676  .00000039  00000-0  00000-0 0  9991
2 41861  54.6579 160.9435 0004830 280.4131  79.4821  1.70473062 22869
1 41861U 16069C   20202.50986171  .00000037  00000-0  00000+0 0  9994
2 41861  54.6580 160.9272 0004814 280.4932  79.4014  1.70473036 22877
1 41861U 16069C   20203.09644575  .00000035  00000-0  00000-0 0  9997
2 41861  54.6580 160.9110 0004772 280.6025  79.2924  1.70473071 22884
1 41861U 16069C   20204.26962042  .00000034  00000-0  00000-0 0  9998
2 41861  54.6581 160.8785 0004734 280.7357  79.1620  1.70473052 22903
1 41861U 16069C   20206.02939044  .00000036  00000-0  00000-0 0  9992
2 41861  54.6583 160.8296 0004705 280.8561  79.0497  1.70473022 22939
1 41861U 16069C   20207.20257125  .00000037  00000-0  00000-0 0  9997
2 41861  54.6584 160.7970 0004679 280.9519  78.9597  1.70472998 22954
1 41861U 16069C   20209.54891943  .00000028  00000-0  00000+0 0  9997
2 41861  54.6586 160.7319 0004608 281.1454  78.7699  1.70472991 22994
1 41861U 16069C   20209.54891943  .00000028  00000-0  00000-0 0  9998
2 41861  54.6586 160.7319 0004608 281.1454  78.7699  1.70472991 22994
1 41861U 16069C   20211.89524601  .00000003  00000-0  00000-0 0  9996
2 41861  54.6588 160.6667 0004536 281.3189  78.5872  1.70473023 23032
